[{"OBJECT_NAME":"XINGYUN-2 01","OBJECT_ID":"2020-028A","EPOCH":"2026-03-09T23:27:57.512736","MEAN_MOTION":15.11323975,"ECCENTRICITY":0.00090563,"INCLINATION":97.4853,"RA_OF_ASC_NODE":63.3977,"ARG_OF_PERICENTER":174.572,"MEAN_ANOMALY":185.561,"EPHEMERIS_TYPE":0,"CLASSIFICATION_TYPE":"U","NORAD_CAT_ID":45602,"ELEMENT_SET_NO":999,"REV_AT_EPOCH":31985,"BSTAR":0.000253969,"MEAN_MOTION_DOT":4.22e-5,"MEAN_MOTION_DDOT":0},{"OBJECT_NAME":"STARLINK-4266","OBJECT_ID":"2022-062AR","EPOCH":"2026-03-09T05:51:31.014144","MEAN_MOTION":15.08838822,"ECCENTRICITY":0.00015446,"INCLINATION":53.2193,"RA_OF_ASC_NODE":16.1209,"ARG_OF_PERICENTER":87.4045,"MEAN_ANOMALY":272.7124,"EPHEMERIS_TYPE":0,"CLASSIFICATION_TYPE":"U","NORAD_CAT_ID":52869,"ELEMENT_SET_NO":999,"REV_AT_EPOCH":20599,"BSTAR":7.250642e-6,"MEAN_MOTION_DOT":-1.73e-6,"MEAN_MOTION_DDOT":0}]
